0 ARIANE 1 DEB
1 35408U 86019FL  13282.80268814  .00000269  00000-0  13390-3 0  6125
2 35408 098.8738 332.2019 0033057 015.8728 047.9334 14.24989203347101
0 ARIANE 1 DEB
1 35408U 86019FL  13287.37925721  .00000351  00000-0  16868-3 0  6146
2 35408 098.8727 336.8286 0032820 002.4751 125.7413 14.24991983347763
0 ARIANE 1 DEB
1 35408U 86019FL  13289.41420152  .00000358  00000-0  17171-3 0  6157
2 35408 098.8720 338.8855 0032715 356.5341 125.0120 14.24994677348044
0 ARIANE 1 DEB
1 35408U 86019FL  13291.66220062  .00000369  00000-0  17640-3 0  6169
2 35408 098.8717 341.1580 0032606 349.9514 137.2933 14.24996687348375
0 ARIANE 1 DEB
1 35408U 86019FL  13293.82445993  .00000426  00000-0  20067-3 0  6173
2 35408 098.8716 343.3433 0032518 343.5394 069.8252 14.24998391348674
0 ARIANE 1 DEB
1 35408U 86019FL  13296.14314170  .00000430  00000-0  20230-3 0  6181
2 35408 098.8715 345.6866 0032434 336.6906 084.8011 14.25000855349005
